[{"OBJECT_NAME":"STARLINK-2237","OBJECT_ID":"2021-041AG","EPOCH":"2026-03-09T10:20:21.854400","MEAN_MOTION":15.06400549,"ECCENTRICITY":0.00014068,"INCLINATION":53.0553,"RA_OF_ASC_NODE":142.7839,"ARG_OF_PERICENTER":97.6803,"MEAN_ANOMALY":262.4346,"EPHEMERIS_TYPE":0,"CLASSIFICATION_TYPE":"U","NORAD_CAT_ID":48583,"ELEMENT_SET_NO":999,"REV_AT_EPOCH":26502,"BSTAR":-7.9771508e-5,"MEAN_MOTION_DOT":-1.469e-5,"MEAN_MOTION_DDOT":0},{"OBJECT_NAME":"CZ-6A DEB","OBJECT_ID":"2024-140FV","EPOCH":"2026-03-09T14:13:09.917760","MEAN_MOTION":15.12617909,"ECCENTRICITY":0.0033796,"INCLINATION":89.006,"RA_OF_ASC_NODE":281.0752,"ARG_OF_PERICENTER":172.4402,"MEAN_ANOMALY":187.7356,"EPHEMERIS_TYPE":0,"CLASSIFICATION_TYPE":"U","NORAD_CAT_ID":60794,"ELEMENT_SET_NO":999,"REV_AT_EPOCH":8371,"BSTAR":0.0056743,"MEAN_MOTION_DOT":0.0010168,"MEAN_MOTION_DDOT":0}]
